*******************************************************************************
 Revised: Mar 12, 2021           Callisto / (Jupiter)                       504

 SATELLITE PHYSICAL PROPERTIES:
  Mean radius (km)      = 2410.3 +- 1.5       Density (g cm^-3)= 1.834 +- 0.004
  GM (km^3/s^2)         = 7179.2834 +- 0.0097 Geometric Albedo = 0.17  +- 0.02

 SATELLITE ORBIT (at J2000.0 epoch, 2000-Jan-1.5):
  Semi-major axis, a (km)~ 1,883,000          Orbital period   ~ 16.691    d
  Eccentricity, e        ~ 0.007              Rotational period= Synchronous
  Inclination, i  (deg)  ~ 0.2   
*******************************************************************************
 
 
*******************************************************************************
Ephemeris / WWW_USER Wed Apr  7 13:47:31 2021 Pasadena, USA      / Horizons
*******************************************************************************
Target body name: Callisto (504)                  {source: jup365_merged}
Center body name: Jupiter (599)                   {source: jup365_merged}
Center-site name: BODY CENTER
*******************************************************************************
Start time      : A.D. 1986-Apr-24 12:00:00.0000 TDB
Stop  time      : A.D. 2013-Sep-09 12:00:00.0000 TDB
Step-size       : 144000 minutes
*******************************************************************************
Center geodetic : 0.00000000,0.00000000,0.0000000 {W-lon(deg),Lat(deg),Alt(km)}
Center cylindric: 0.00000000,0.00000000,0.0000000 {W-lon(deg),Dxy(km),Dz(km)}
Center radii    : 71492.0 x 71492.0 x 66854.0 km  {Equator, meridian, pole}    
Output units    : AU-D
Output type     : LT+S CORRECTED cartesian states
Output format   : 2 (position and velocity)
Reference frame : Ecliptic of J2000.0
*******************************************************************************
JDTDB
   X     Y     Z
   VX    VY    VZ
*******************************************************************************
$$SOE
2453945.000000000 = A.D. 2006-Jul-28 12:00:00.0000 TDB 
 X = 1.230588356256828E-02 Y = 2.159830513387377E-03 Z = 2.338237203544141E-04
 VX=-8.201120789825105E-04 VY= 4.698644201848503E-03 VZ= 1.405408426579507E-04
2454045.000000000 = A.D. 2006-Nov-05 12:00:00.0000 TDB 
 X = 1.240004660861033E-02 Y = 1.527631353705542E-03 Z = 2.148882176520994E-04
 VX=-5.808305986003758E-04 VY= 4.734865103915510E-03 VZ= 1.447812474723767E-04
2454145.000000000 = A.D. 2007-Feb-13 12:00:00.0000 TDB 
 X = 1.246176868706626E-02 Y = 8.910877787988728E-04 Z = 1.954384277655668E-04
 VX=-3.384317922186934E-04 VY= 4.758042953168352E-03 VZ= 1.486720775939483E-04
2454245.000000000 = A.D. 2007-May-24 12:00:00.0000 TDB 
 X = 1.249123907224847E-02 Y = 2.527448005366509E-04 Z = 1.755378303688529E-04
 VX=-9.699978532788010E-05 VY= 4.769526736370116E-03 VZ= 1.522076078821898E-04
2454345.000000000 = A.D. 2007-Sep-01 12:00:00.0000 TDB 
 X = 1.248796690861985E-02 Y =-3.868042992945092E-04 Z = 1.551659137791726E-04
 VX= 1.464337380614206E-04 VY= 4.768100834805385E-03 VZ= 1.553908787004489E-04
2454445.000000000 = A.D. 2007-Dec-10 12:00:00.0000 TDB 
 X = 1.245205260990841E-02 Y =-1.024883192461981E-03 Z = 1.343834653312481E-04
 VX= 3.877228446257132E-04 VY= 4.754220951377437E-03 VZ= 1.581731797953157E-04
2454545.000000000 = A.D. 2008-Mar-19 12:00:00.0000 TDB 
 X = 1.238368748775350E-02 Y =-1.661003469567127E-03 Z = 1.131770339629613E-04
 VX= 6.300483321904805E-04 VY= 4.728147826995597E-03 VZ= 1.606051667022554E-04
2454645.000000000 = A.D. 2008-Jun-27 12:00:00.0000 TDB 
 X = 1.228290824345282E-02 Y =-2.292609947511244E-03 Z = 9.161033619084109E-05
 VX= 8.690921943009932E-04 VY= 4.689437108834389E-03 VZ= 1.625988055715749E-04
2454745.000000000 = A.D. 2008-Oct-05 12:00:00.0000 TDB 
 X = 1.215032039969436E-02 Y =-2.919042106915167E-03 Z = 6.969825395181540E-05
 VX= 1.107596969809608E-03 VY= 4.639443769673859E-03 VZ= 1.642328526710921E-04
2454845.000000000 = A.D. 2009-Jan-13 12:00:00.0000 TDB 
 X = 1.198570771765868E-02 Y =-3.537648758765461E-03 Z = 4.752615232168222E-05
 VX= 1.341501787645103E-03 VY= 4.576375986889004E-03 VZ= 1.653724585075532E-04
2454945.000000000 = A.D. 2009-Apr-23 12:00:00.0000 TDB 
 X = 1.179003807889622E-02 Y =-4.147590182070710E-03 Z = 2.514582052306468E-05
 VX= 1.573115013230458E-03 VY= 4.502492662250593E-03 VZ= 1.661167023673277E-04
2455045.000000000 = A.D. 2009-Aug-01 12:00:00.0000 TDB 
 X = 1.156301655878152E-02 Y =-4.746655129660158E-03 Z = 2.651894267989709E-06
 VX= 1.799455932462087E-03 VY= 4.415216044583314E-03 VZ= 1.663194449985546E-04
2455145.000000000 = A.D. 2009-Nov-09 12:00:00.0000 TDB 
 X = 1.130614332367339E-02 Y =-5.334032603140900E-03 Z =-1.987457191291342E-05
 VX= 2.022178768461883E-03 VY= 4.317878638759047E-03 VZ= 1.661138780243351E-04
2455245.000000000 = A.D. 2010-Feb-17 12:00:00.0000 TDB 
 X = 1.101926283890530E-02 Y =-5.907691281445575E-03 Z =-4.232723844607139E-05
 VX= 2.239035061594359E-03 VY= 4.207589803889859E-03 VZ= 1.653651361464460E-04
2455345.000000000 = A.D. 2010-May-28 12:00:00.0000 TDB 
 X = 1.070426577980261E-02 Y =-6.466187388843162E-03 Z =-6.459134645032152E-05
 VX= 2.450339976195429E-03 VY= 4.088301095518719E-03 VZ= 1.642240242616923E-04
2455445.000000000 = A.D. 2010-Sep-05 12:00:00.0000 TDB 
 X = 1.036097895434704E-02 Y =-7.007676534097979E-03 Z =-8.657263758094042E-05
 VX= 2.654791466971479E-03 VY= 3.956599208003981E-03 VZ= 1.625620700018967E-04
2455545.000000000 = A.D. 2010-Dec-14 12:00:00.0000 TDB 
 X = 9.991245229588667E-03 Y =-7.530700145647188E-03 Z =-1.081752995767261E-04
 VX= 2.851785328936493E-03 VY= 3.816427288943477E-03 VZ= 1.605257436703255E-04
2455645.000000000 = A.D. 2011-Mar-24 12:00:00.0000 TDB 
 X = 9.594947519325501E-03 Y =-8.034141655765416E-03 Z =-1.293612289753768E-04
 VX= 3.041630228032919E-03 VY= 3.664386880910278E-03 VZ= 1.580139110674044E-04
2455745.000000000 = A.D. 2011-Jul-02 12:00:00.0000 TDB 
 X = 9.174211214918218E-03 Y =-8.516417140318800E-03 Z =-1.500645750549634E-04
 VX= 3.222775413458122E-03 VY= 3.504524610146605E-03 VZ= 1.551668367579192E-04
2455845.000000000 = A.D. 2011-Oct-10 12:00:00.0000 TDB 
 X = 8.729395553190382E-03 Y =-8.976668820993820E-03 Z =-1.702879791973025E-04
 VX= 3.396480974306729E-03 VY= 3.334225152067418E-03 VZ= 1.519218227673329E-04
2455945.000000000 = A.D. 2012-Jan-18 12:00:00.0000 TDB 
 X = 8.262607121440913E-03 Y =-9.412992435341497E-03 Z =-1.899829942253118E-04
 VX= 3.560007565524811E-03 VY= 3.157096749370681E-03 VZ= 1.483810479439052E-04
2456045.000000000 = A.D. 2012-Apr-27 12:00:00.0000 TDB 
 X = 7.774237602432523E-03 Y =-9.825013399580727E-03 Z =-2.091848673496923E-04
 VX= 3.715439722525014E-03 VY= 2.970946858011757E-03 VZ= 1.444959782443985E-04
2456145.000000000 = A.D. 2012-Aug-05 12:00:00.0000 TDB 
 X = 7.266013976825419E-03 Y =-1.021088994391131E-02 Z =-2.278546634480372E-04
 VX= 3.859337408090528E-03 VY= 2.778317758127627E-03 VZ= 1.403033649970938E-04
2456245.000000000 = A.D. 2012-Nov-13 12:00:00.0000 TDB 
 X = 6.738753080593862E-03 Y =-1.057066172251637E-02 Z =-2.460273422463248E-04
 VX= 3.994779751409056E-03 VY= 2.577859817665302E-03 VZ= 1.357851530502374E-04
2456345.000000000 = A.D. 2013-Feb-21 12:00:00.0000 TDB 
 X = 6.194240463836178E-03 Y =-1.090253413842802E-02 Z =-2.636439230699165E-04
 VX= 4.118036328784764E-03 VY= 2.371320661473514E-03 VZ= 1.309337726210290E-04
2456445.000000000 = A.D. 2013-Jun-01 12:00:00.0000 TDB 
 X = 5.633789627749775E-03 Y =-1.120680032355588E-02 Z =-2.807122829320573E-04
 VX= 4.232589158144941E-03 VY= 2.158807315802698E-03 VZ= 1.257869463157555E-04
2456545.000000000 = A.D. 2013-Sep-09 12:00:00.0000 TDB 
 X = 5.058873410726388E-03 Y =-1.148170209474249E-02 Z =-2.971462166158047E-04
 VX= 4.334377032265669E-03 VY= 1.941011090985981E-03 VZ= 1.202942162544229E-04
